start=new Date('2022-04-18T00:00:00.000Z').valueOf();
sats=[{"MEAN_MOTION_DOT":"0.00008699","REF_FRAME":"TEME","PERIOD":"95.438","COUNTRY_CODE":"US","CENTER_NAME":"EARTH","TLE_LINE2":"2 49733  53.2144  61.7173 0002265  43.6972 201.6366 15.08834833  3569","BSTAR":"0.00056404000000","MEAN_MOTION":"15.08834833","SEMIMAJOR_AXIS":"6917.896","REV_AT_EPOCH":"356","TIME_SYSTEM":"UTC","LAUNCH_DATE":"2021-12-02","APOAPSIS":"541.328","NORAD_CAT_ID":"49733","EPOCH":"2022-04-17T22:00:00.999936","TLE_LINE1":"1 49733U 21115K   22107.91667824  .00008699  00000-0  56404-3 0  9995","OBJECT_TYPE":"PAYLOAD","ARG_OF_PERICENTER":"43.6972","RA_OF_ASC_NODE":"61.7173","EPHEMERIS_TYPE":"0","RCS_SIZE":"LARGE","OBJECT_NAME":"STARLINK-3252","CLASSIFICATION_TYPE":"U","SITE":"AFETR","MEAN_ELEMENT_THEORY":"SGP4","INCLINATION":"53.2144","GP_ID":"201496865","FILE":"3405839","DECAY_DATE":null,"ELEMENT_SET_NO":"999","MEAN_MOTION_DDOT":"0.0000000000000","ECCENTRICITY":"0.00022650","OBJECT_ID":"2021-115K","PERIAPSIS":"538.194","MEAN_ANOMALY":"201.6366"},{"GP_ID":"201497115","FILE":"3405839","DECAY_DATE":null,"MEAN_ELEMENT_THEORY":"SGP4","INCLINATION":"53.2188","ELEMENT_SET_NO":"999","OBJECT_ID":"2021-115L","MEAN_MOTION_DDOT":"0.0000000000000","ECCENTRICITY":"0.00020330","MEAN_ANOMALY":"91.7845","PERIAPSIS":"538.345","EPOCH":"2022-04-17T22:00:00.999936","TLE_LINE1":"1 49734U 21115L   22107.91667824 -.00004238  00000-0 -24834-3 0  9995","EPHEMERIS_TYPE":"0","OBJECT_TYPE":"PAYLOAD","RA_OF_ASC_NODE":"51.6962","ARG_OF_PERICENTER":"48.5692","OBJECT_NAME":"STARLINK-3238","RCS_SIZE":"LARGE","SITE":"AFETR","CLASSIFICATION_TYPE":"U","BSTAR":"-0.00024834000000","MEAN_MOTION":"15.08838117","SEMIMAJOR_AXIS":"6917.886","REV_AT_EPOCH":"356","APOAPSIS":"541.158","NORAD_CAT_ID":"49734","TIME_SYSTEM":"UTC","LAUNCH_DATE":"2021-12-02","REF_FRAME":"TEME","MEAN_MOTION_DOT":"-0.00004238","COUNTRY_CODE":"US","PERIOD":"95.438","CENTER_NAME":"EARTH","TLE_LINE2":"2 49734  53.2188  51.6962 0002033  48.5692  91.7845 15.08838117  3567"},{"RCS_SIZE":"LARGE","OBJECT_NAME":"STARLINK-3113","CLASSIFICATION_TYPE":"U","SITE":"AFETR","TLE_LINE1":"1 49735U 21115M   22107.91667824  .00008490  00000-0  55080-3 0  9995","EPOCH":"2022-04-17T22:00:00.999936","OBJECT_TYPE":"PAYLOAD","RA_OF_ASC_NODE":"61.7110","ARG_OF_PERICENTER":"37.7449","EPHEMERIS_TYPE":"0","MEAN_MOTION_DDOT":"0.0000000000000","ECCENTRICITY":"0.00020860","OBJECT_ID":"2021-115M","PERIAPSIS":"538.285","MEAN_ANOMALY":"187.6241","MEAN_ELEMENT_THEORY":"SGP4","INCLINATION":"53.2148","GP_ID":"201497375","FILE":"3405839","DECAY_DATE":null,"ELEMENT_SET_NO":"999","CENTER_NAME":"EARTH","TLE_LINE2":"2 49735  53.2148  61.7110 0002086  37.7449 187.6241 15.08845650  3564","MEAN_MOTION_DOT":"0.00008490","REF_FRAME":"TEME","PERIOD":"95.437","COUNTRY_CODE":"US","REV_AT_EPOCH":"356","SEMIMAJOR_AXIS":"6917.863","LAUNCH_DATE":"2021-12-02","TIME_SYSTEM":"UTC","NORAD_CAT_ID":"49735","APOAPSIS":"541.171","BSTAR":"0.00055080000000","MEAN_MOTION":"15.08845650"},{"RA_OF_ASC_NODE":"51.6957","ARG_OF_PERICENTER":"36.7390","OBJECT_TYPE":"PAYLOAD","EPHEMERIS_TYPE":"0","EPOCH":"2022-04-17T22:00:00.999936","TLE_LINE1":"1 49736U 21115N   22107.91667824 -.00004002  00000-0 -23346-3 0  9993","CLASSIFICATION_TYPE":"U","SITE":"AFETR","RCS_SIZE":"LARGE","OBJECT_NAME":"STARLINK-3148","ELEMENT_SET_NO":"999","INCLINATION":"53.2182","MEAN_ELEMENT_THEORY":"SGP4","FILE":"3405839","DECAY_DATE":null,"GP_ID":"201498115","PERIAPSIS":"538.161","MEAN_ANOMALY":"63.6011","ECCENTRICITY":"0.00022980","MEAN_MOTION_DDOT":"0.0000000000000","OBJECT_ID":"2021-115N","PERIOD":"95.438","COUNTRY_CODE":"US","MEAN_MOTION_DOT":"-0.00004002","REF_FRAME":"TEME","TLE_LINE2":"2 49736  53.2182  51.6957 0002298  36.7390  63.6011 15.08838103  3573","CENTER_NAME":"EARTH","MEAN_MOTION":"15.08838103","BSTAR":"-0.00023346000000","LAUNCH_DATE":"2021-12-02","TIME_SYSTEM":"UTC","NORAD_CAT_ID":"49736","APOAPSIS":"541.341","SEMIMAJOR_AXIS":"6917.886","REV_AT_EPOCH":"357"},{"OBJECT_TYPE":"PAYLOAD","ARG_OF_PERICENTER":"41.2003","RA_OF_ASC_NODE":"51.7026","EPHEMERIS_TYPE":"0","TLE_LINE1":"1 49737U 21115P   22107.91667824 -.00003415  00000-0 -19658-3 0  9992","EPOCH":"2022-04-17T22:00:00.999936","CLASSIFICATION_TYPE":"U","SITE":"AFETR","RCS_SIZE":"LARGE","OBJECT_NAME":"STARLINK-3225","ELEMENT_SET_NO":"999","MEAN_ELEMENT_THEORY":"SGP4","INCLINATION":"53.2199","GP_ID":"201496374","FILE":"3405839","DECAY_DATE":null,"PERIAPSIS":"538.313","MEAN_ANOMALY":"79.1419","MEAN_MOTION_DDOT":"0.0000000000000","ECCENTRICITY":"0.00020810","OBJECT_ID":"2021-115P","PERIOD":"95.438","COUNTRY_CODE":"US","MEAN_MOTION_DOT":"-0.00003415","REF_FRAME":"TEME","TLE_LINE2":"2 49737  53.2199  51.7026 0002081  41.2003  79.1419 15.08837494  3567","CENTER_NAME":"EARTH","MEAN_MOTION":"15.08837494","BSTAR":"-0.00019658000000","TIME_SYSTEM":"UTC","LAUNCH_DATE":"2021-12-02","APOAPSIS":"541.193","NORAD_CAT_ID":"49737","SEMIMAJOR_AXIS":"6917.888","REV_AT_EPOCH":"356"},{"BSTAR":"-0.00017808000000","MEAN_MOTION":"15.08844489","SEMIMAJOR_AXIS":"6917.867","REV_AT_EPOCH":"357","NORAD_CAT_ID":"49738","APOAPSIS":"541.270","TIME_SYSTEM":"UTC","LAUNCH_DATE":"2021-12-02","REF_FRAME":"TEME","MEAN_MOTION_DOT":"-0.00003122","COUNTRY_CODE":"US","PERIOD":"95.437","CENTER_NAME":"EARTH","TLE_LINE2":"2 49738  53.2187  51.7058 0002224  40.6317  39.6995 15.08844489  3573","GP_ID":"201496624","FILE":"3405839","DECAY_DATE":null,"MEAN_ELEMENT_THEORY":"SGP4","INCLINATION":"53.2187","ELEMENT_SET_NO":"999","OBJECT_ID":"2021-115Q","MEAN_MOTION_DDOT":"0.0000000000000","ECCENTRICITY":"0.00022240","MEAN_ANOMALY":"39.6995","PERIAPSIS":"538.193","TLE_LINE1":"1 49738U 21115Q   22107.91667824 -.00003122  00000-0 -17808-3 0  9993","EPOCH":"2022-04-17T22:00:00.999936","EPHEMERIS_TYPE":"0","OBJECT_TYPE":"PAYLOAD","ARG_OF_PERICENTER":"40.6317","RA_OF_ASC_NODE":"51.7058","OBJECT_NAME":"STARLINK-3143","RCS_SIZE":"LARGE","SITE":"AFETR","CLASSIFICATION_TYPE":"U"},{"SITE":"AFETR","CLASSIFICATION_TYPE":"U","OBJECT_NAME":"STARLINK-3155","RCS_SIZE":"LARGE","EPHEMERIS_TYPE":"0","OBJECT_TYPE":"PAYLOAD","RA_OF_ASC_NODE":"61.7189","ARG_OF_PERICENTER":"35.4749","EPOCH":"2022-04-17T22:00:00.999936","TLE_LINE1":"1 49739U 21115R   22107.91667824  .00007613  00000-0  49578-3 0  9990","MEAN_ANOMALY":"149.8908","PERIAPSIS":"538.272","OBJECT_ID":"2021-115R","MEAN_MOTION_DDOT":"0.0000000000000","ECCENTRICITY":"0.00020880","ELEMENT_SET_NO":"999","GP_ID":"201497867","DECAY_DATE":null,"FILE":"3405839","MEAN_ELEMENT_THEORY":"SGP4","INCLINATION":"53.2126","TLE_LINE2":"2 49739  53.2126  61.7189 0002088  35.4749 149.8908 15.08849560  3564","CENTER_NAME":"EARTH","COUNTRY_CODE":"US","PERIOD":"95.437","REF_FRAME":"TEME","MEAN_MOTION_DOT":"0.00007613","NORAD_CAT_ID":"49739","APOAPSIS":"541.161","TIME_SYSTEM":"UTC","LAUNCH_DATE":"2021-12-02","SEMIMAJOR_AXIS":"6917.851","REV_AT_EPOCH":"356","MEAN_MOTION":"15.08849560","BSTAR":"0.00049578000000"},{"ELEMENT_SET_NO":"999","INCLINATION":"53.2185","MEAN_ELEMENT_THEORY":"SGP4","DECAY_DATE":null,"FILE":"3405839","GP_ID":"201497624","PERIAPSIS":"538.188","MEAN_ANOMALY":"341.6579","ECCENTRICITY":"0.00022360","MEAN_MOTION_DDOT":"0.0000000000000","OBJECT_ID":"2021-115S","ARG_OF_PERICENTER":"38.6905","RA_OF_ASC_NODE":"51.7191","OBJECT_TYPE":"PAYLOAD","EPHEMERIS_TYPE":"0","TLE_LINE1":"1 49740U 21115S   22107.91667824 -.00001671  00000-0 -86878-4 0  9997","EPOCH":"2022-04-17T22:00:00.999936","CLASSIFICATION_TYPE":"U","SITE":"AFETR","RCS_SIZE":"LARGE","OBJECT_NAME":"STARLINK-3226","MEAN_MOTION":"15.08843475","BSTAR":"-0.00008687800000","TIME_SYSTEM":"UTC","LAUNCH_DATE":"2021-12-02","NORAD_CAT_ID":"49740","APOAPSIS":"541.282","SEMIMAJOR_AXIS":"6917.870","REV_AT_EPOCH":"357","PERIOD":"95.437","COUNTRY_CODE":"US","MEAN_MOTION_DOT":"-0.00001671","REF_FRAME":"TEME","TLE_LINE2":"2 49740  53.2185  51.7191 0002236  38.6905 341.6579 15.08843475  3573","CENTER_NAME":"EARTH"},{"INCLINATION":"53.2176","MEAN_ELEMENT_THEORY":"SGP4","DECAY_DATE":null,"FILE":"3405839","GP_ID":"201496866","ELEMENT_SET_NO":"999","ECCENTRICITY":"0.00019080","MEAN_MOTION_DDOT":"0.0000000000000","OBJECT_ID":"2021-115T","PERIAPSIS":"538.430","MEAN_ANOMALY":"17.1768","EPOCH":"2022-04-17T22:00:00.999936","TLE_LINE1":"1 49741U 21115T   22107.91667824 -.00002334  00000-0 -12858-3 0  9991","ARG_OF_PERICENTER":"43.1789","RA_OF_ASC_NODE":"51.7205","OBJECT_TYPE":"PAYLOAD","EPHEMERIS_TYPE":"0","RCS_SIZE":"LARGE","OBJECT_NAME":"STARLINK-3244","CLASSIFICATION_TYPE":"U","SITE":"AFETR","BSTAR":"-0.00012858000000","MEAN_MOTION":"15.08838501","SEMIMAJOR_AXIS":"6917.885","REV_AT_EPOCH":"357","LAUNCH_DATE":"2021-12-02","TIME_SYSTEM":"UTC","NORAD_CAT_ID":"49741","APOAPSIS":"541.070","MEAN_MOTION_DOT":"-0.00002334","REF_FRAME":"TEME","PERIOD":"95.438","COUNTRY_CODE":"US","CENTER_NAME":"EARTH","TLE_LINE2":"2 49741  53.2176  51.7205 0001908  43.1789  17.1768 15.08838501  3575"},{"CENTER_NAME":"EARTH","TLE_LINE2":"2 49742  53.2168  51.7217 0002361  41.5860 298.7641 15.08848651  3569","MEAN_MOTION_DOT":"-0.00000771","REF_FRAME":"TEME","PERIOD":"95.437","COUNTRY_CODE":"US","REV_AT_EPOCH":"356","SEMIMAJOR_AXIS":"6917.854","TIME_SYSTEM":"UTC","LAUNCH_DATE":"2021-12-02","APOAPSIS":"541.352","NORAD_CAT_ID":"49742","BSTAR":"-0.00003034300000","MEAN_MOTION":"15.08848651","RCS_SIZE":"LARGE","OBJECT_NAME":"STARLINK-3202","CLASSIFICATION_TYPE":"U","SITE":"AFETR","TLE_LINE1":"1 49742U 21115U   22107.91667824 -.00000771  00000-0 -30343-4 0  9995","EPOCH":"2022-04-17T22:00:00.999936","OBJECT_TYPE":"PAYLOAD","ARG_OF_PERICENTER":"41.5860","RA_OF_ASC_NODE":"51.7217","EPHEMERIS_TYPE":"0","MEAN_MOTION_DDOT":"0.0000000000000","ECCENTRICITY":"0.00023610","OBJECT_ID":"2021-115U","PERIAPSIS":"538.086","MEAN_ANOMALY":"298.7641","MEAN_ELEMENT_THEORY":"SGP4","INCLINATION":"53.2168","GP_ID":"201497116","DECAY_DATE":null,"FILE":"3405839","ELEMENT_SET_NO":"999"}];
